{"type": "FeatureCollection", "features": [ {"type": "Feature", "properties": {"norad_id": 67110, "name": "STARLINK-35781", "group": "last-30-days", "lat": 29.196496175959986, "lon": 34.48819951628028, "alt_km": 295.9758605325369, "timestamp": "2025-12-23T09:49:05.801004+00:00", "meta": {"OBJECT_NAME": "STARLINK-35781", "OBJECT_ID": "2025-299J", "EPOCH": "2025-12-22T22:00:03.000096", "MEAN_MOTION": 15.93024302, "ECCENTRICITY": 0.00018006, "INCLINATION": 42.998, "RA_OF_ASC_NODE": 254.4022, "ARG_OF_PERICENTER": 267.1681, "MEAN_ANOMALY": 281.5674, "EPHEMERIS_TYPE": 0, "CLASSIFICATION_TYPE": "U", "NORAD_CAT_ID": 67110, "ELEMENT_SET_NO": 999, "REV_AT_EPOCH": 239, "BSTAR": -0.005844275, "MEAN_MOTION_DOT": -0.02105245, "MEAN_MOTION_DDOT": 0.0012017656}, "tle": {"line1": "1 67110U 25299J   25356.91670139 -.02105245  12018-2 -58443-2 0  9990", "line2": "2 67110  42.9980 254.4022 0001800 267.1681 281.5674 15.93024302  2394"}}, "geometry": {"type": "Point", "coordinates": [34.48819951628028, 29.196496175959986]}}, {"type": "Feature", "properties": {"norad_id": 67111, "name": "STARLINK-35875", "group": "last-30-days", "lat": 30.10618577219557, "lon": 32.859615551739765, "alt_km": 295.758769636167, "timestamp": "2025-12-23T09:49:05.801014+00:00", "meta": {"OBJECT_NAME": "STARLINK-35875", "OBJECT_ID": "2025-299K", "EPOCH": "2025-12-22T22:00:03.000096", "MEAN_MOTION": 15.93037984, "ECCENTRICITY": 0.00012454, "INCLINATION": 42.998, "RA_OF_ASC_NODE": 254.4068, "ARG_OF_PERICENTER": 275.8217, "MEAN_ANOMALY": 271.2227, "EPHEMERIS_TYPE": 0, "CLASSIFICATION_TYPE": "U", "NORAD_CAT_ID": 67111, "ELEMENT_SET_NO": 999, "REV_AT_EPOCH": 233, "BSTAR": -0.0059267976, "MEAN_MOTION_DOT": -0.02135956, "MEAN_MOTION_DDOT": 0.0012352174}, "tle": {"line1": "1 67111U 25299K   25356.91670139 -.02135956  12352-2 -59268-2 0  9990", "line2": "2 67111  42.9980 254.4068 0001245 275.8217 271.2227 15.93037984  2333"}}, "geometry": {"type": "Point", "coordinates": [32.859615551739765, 30.10618577219557]}}, {"type": "Feature", "properties": {"norad_id": 67112, "name": "STARLINK-35906", "group": "last-30-days", "lat": 28.432874210312594, "lon": 35.80771672037329, "alt_km": 296.03966990402296, "timestamp": "2025-12-23T09:49:05.801026+00:00", "meta": {"OBJECT_NAME": "STARLINK-35906", "OBJECT_ID": "2025-299L", "EPOCH": "2025-12-22T22:00:03.000096", "MEAN_MOTION": 15.93050666, "ECCENTRICITY": 0.00017507, "INCLINATION": 42.998, "RA_OF_ASC_NODE": 254.399, "ARG_OF_PERICENTER": 267.8413, "MEAN_ANOMALY": 282.2484, "EPHEMERIS_TYPE": 0, "CLASSIFICATION_TYPE": "U", "NORAD_CAT_ID": 67112, "ELEMENT_SET_NO": 999, "REV_AT_EPOCH": 233, "BSTAR": -0.0058861765, "MEAN_MOTION_DOT": -0.02123049, "MEAN_MOTION_DDOT": 0.0012213296}, "tle": {"line1": "1 67112U 25299L   25356.91670139 -.02123049  12213-2 -58862-2 0  9996", "line2": "2 67112  42.9980 254.3990 0001750 267.8413 282.2484 15.93050666  2336"}}, "geometry": {"type": "Point", "coordinates": [35.80771672037329, 28.432874210312594]}}, {"type": "Feature", "properties": {"norad_id": 67113, "name": "STARLINK-35789", "group": "last-30-days", "lat": 27.586492881483576, "lon": 37.223404959787494, "alt_km": 295.70237582970367, "timestamp": "2025-12-23T09:49:05.801037+00:00", "meta": {"OBJECT_NAME": "STARLINK-35789", "OBJECT_ID": "2025-299M", "EPOCH": "2025-12-22T22:00:03.000096", "MEAN_MOTION": 15.930677, "ECCENTRICITY": 0.00010493, "INCLINATION": 42.9979, "RA_OF_ASC_NODE": 254.3953, "ARG_OF_PERICENTER": 263.9452, "MEAN_ANOMALY": 287.6209, "EPHEMERIS_TYPE": 0, "CLASSIFICATION_TYPE": "U", "NORAD_CAT_ID": 67113, "ELEMENT_SET_NO": 999, "REV_AT_EPOCH": 233, "BSTAR": -0.0058839218, "MEAN_MOTION_DOT": -0.02123925, "MEAN_MOTION_DDOT": 0.0012224971}, "tle": {"line1": "1 67113U 25299M   25356.91670139 -.02123925  12225-2 -58839-2 0  9997", "line2": "2 67113  42.9979 254.3953 0001049 263.9452 287.6209 15.93067700  2336"}}, "geometry": {"type": "Point", "coordinates": [37.223404959787494, 27.586492881483576]}}, {"type": "Feature", "properties": {"norad_id": 67114, "name": "STARLINK-36180", "group": "last-30-days", "lat": 26.562275535584654, "lon": 38.877847541100444, "alt_km": 295.7526696165296, "timestamp": "2025-12-23T09:49:05.801047+00:00", "meta": {"OBJECT_NAME": "STARLINK-36180", "OBJECT_ID": "2025-299N", "EPOCH": "2025-12-22T22:00:03.000096", "MEAN_MOTION": 15.93057454, "ECCENTRICITY": 0.00014724, "INCLINATION": 42.9982, "RA_OF_ASC_NODE": 254.3908, "ARG_OF_PERICENTER": 254.1516, "MEAN_ANOMALY": 299.2186, "EPHEMERIS_TYPE": 0, "CLASSIFICATION_TYPE": "U", "NORAD_CAT_ID": 67114, "ELEMENT_SET_NO": 999, "REV_AT_EPOCH": 244, "BSTAR": -0.0058301792, "MEAN_MOTION_DOT": -0.02103746, "MEAN_MOTION_DDOT": 0.001200566}, "tle": {"line1": "1 67114U 25299N   25356.91670139 -.02103746  12006-2 -58302-2 0  9999", "line2": "2 67114  42.9982 254.3908 0001472 254.1516 299.2186 15.93057454  2444"}}, "geometry": {"type": "Point", "coordinates": [38.877847541100444, 26.562275535584654]}}, {"type": "Feature", "properties": {"norad_id": 67115, "name": "STARLINK-35892", "group": "last-30-days", "lat": 25.67242905440581, "lon": 40.26705827303477, "alt_km": 296.33892870045474, "timestamp": "2025-12-23T09:49:05.801059+00:00", "meta": {"OBJECT_NAME": "STARLINK-35892", "OBJECT_ID": "2025-299P", "EPOCH": "2025-12-22T22:00:03.000096", "MEAN_MOTION": 15.93064983, "ECCENTRICITY": 0.00014084, "INCLINATION": 42.9981, "RA_OF_ASC_NODE": 254.387, "ARG_OF_PERICENTER": 275.8865, "MEAN_ANOMALY": 279.006, "EPHEMERIS_TYPE": 0, "CLASSIFICATION_TYPE": "U", "NORAD_CAT_ID": 67115, "ELEMENT_SET_NO": 999, "REV_AT_EPOCH": 233, "BSTAR": -0.0058589549, "MEAN_MOTION_DOT": -0.02114811, "MEAN_MOTION_DDOT": 0.0012125848}, "tle": {"line1": "1 67115U 25299P   25356.91670139 -.02114811  12126-2 -58590-2 0  9997", "line2": "2 67115  42.9981 254.3870 0001408 275.8865 279.0060 15.93064983  2338"}}, "geometry": {"type": "Point", "coordinates": [40.26705827303477, 25.67242905440581]}}, {"type": "Feature", "properties": {"norad_id": 67116, "name": "STARLINK-35738", "group": "last-30-days", "lat": 24.571799854231674, "lon": 41.93021970097283, "alt_km": 296.3265665385579, "timestamp": "2025-12-23T09:49:05.801070+00:00", "meta": {"OBJECT_NAME": "STARLINK-35738", "OBJECT_ID": "2025-299Q", "EPOCH": "2025-12-22T22:00:03.000096", "MEAN_MOTION": 15.93063124, "ECCENTRICITY": 0.00013619, "INCLINATION": 42.9982, "RA_OF_ASC_NODE": 254.3823, "ARG_OF_PERICENTER": 269.8915, "MEAN_ANOMALY": 286.8645, "EPHEMERIS_TYPE": 0, "CLASSIFICATION_TYPE": "U", "NORAD_CAT_ID": 67116, "ELEMENT_SET_NO": 999, "REV_AT_EPOCH": 233, "BSTAR": -0.0058298537, "MEAN_MOTION_DOT": -0.02104217, "MEAN_MOTION_DDOT": 0.0012011396}, "tle": {"line1": "1 67116U 25299Q   25356.91670139 -.02104217  12011-2 -58299-2 0  9996", "line2": "2 67116  42.9982 254.3823 0001361 269.8915 286.8645 15.93063124  2336"}}, "geometry": {"type": "Point", "coordinates": [41.93021970097283, 24.571799854231674]}}, {"type": "Feature", "properties": {"norad_id": 67117, "name": "STARLINK-35674", "group": "last-30-days", "lat": 23.580495315731824, "lon": 43.38082794082603, "alt_km": 296.2720103591528, "timestamp": "2025-12-23T09:49:05.801080+00:00", "meta": {"OBJECT_NAME": "STARLINK-35674", "OBJECT_ID": "2025-299R", "EPOCH": "2025-12-22T22:00:03.000096", "MEAN_MOTION": 15.93067516, "ECCENTRICITY": 0.00013985, "INCLINATION": 42.9984, "RA_OF_ASC_NODE": 254.3781, "ARG_OF_PERICENTER": 262.3506, "MEAN_ANOMALY": 296.0511, "EPHEMERIS_TYPE": 0, "CLASSIFICATION_TYPE": "U", "NORAD_CAT_ID": 67117, "ELEMENT_SET_NO": 999, "REV_AT_EPOCH": 223, "BSTAR": -0.0058107579, "MEAN_MOTION_DOT": -0.02097898, "MEAN_MOTION_DDOT": 0.0011944094}, "tle": {"line1": "1 67117U 25299R   25356.91670139 -.02097898  11944-2 -58108-2 0  9996", "line2": "2 67117  42.9984 254.3781 0001398 262.3506 296.0511 15.93067516  2239"}}, "geometry": {"type": "Point", "coordinates": [43.38082794082603, 23.580495315731824]}}, {"type": "Feature", "properties": {"norad_id": 67118, "name": "STARLINK-35701", "group": "last-30-days", "lat": 22.544580586032975, "lon": 44.85293187714807, "alt_km": 296.74520594231217, "timestamp": "2025-12-23T09:49:05.801090+00:00", "meta": {"OBJECT_NAME": "STARLINK-35701", "OBJECT_ID": "2025-299S", "EPOCH": "2025-12-22T22:00:03.000096", "MEAN_MOTION": 15.9307182, "ECCENTRICITY": 0.00016622, "INCLINATION": 42.9982, "RA_OF_ASC_NODE": 254.3738, "ARG_OF_PERICENTER": 272.2723, "MEAN_ANOMALY": 287.8307, "EPHEMERIS_TYPE": 0, "CLASSIFICATION_TYPE": "U", "NORAD_CAT_ID": 67118, "ELEMENT_SET_NO": 999, "REV_AT_EPOCH": 239, "BSTAR": -0.005816752, "MEAN_MOTION_DOT": -0.02100589, "MEAN_MOTION_DDOT": 0.0011973466}, "tle": {"line1": "1 67118U 25299S   25356.91670139 -.02100589  11973-2 -58168-2 0  9997", "line2": "2 67118  42.9982 254.3738 0001662 272.2723 287.8307 15.93071820  2396"}}, "geometry": {"type": "Point", "coordinates": [44.85293187714807, 22.544580586032975]}}, {"type": "Feature", "properties": {"norad_id": 67119, "name": "STARLINK-36179", "group": "last-30-days", "lat": 20.94826417977774, "lon": 47.04400527748218, "alt_km": 296.868372224566, "timestamp": "2025-12-23T09:49:05.801100+00:00", "meta": {"OBJECT_NAME": "STARLINK-36179", "OBJECT_ID": "2025-299T", "EPOCH": "2025-12-22T22:00:03.000096", "MEAN_MOTION": 15.93088597, "ECCENTRICITY": 0.00016234, "INCLINATION": 42.9981, "RA_OF_ASC_NODE": 254.3672, "ARG_OF_PERICENTER": 273.548, "MEAN_ANOMALY": 289.0989, "EPHEMERIS_TYPE": 0, "CLASSIFICATION_TYPE": "U", "NORAD_CAT_ID": 67119, "ELEMENT_SET_NO": 999, "REV_AT_EPOCH": 244, "BSTAR": -0.0057606704, "MEAN_MOTION_DOT": -0.02082387, "MEAN_MOTION_DDOT": 0.0011780907}, "tle": {"line1": "1 67119U 25299T   25356.91670139 -.02082387  11781-2 -57607-2 0  9997", "line2": "2 67119  42.9981 254.3672 0001623 273.5480 289.0989 15.93088597  2449"}}, "geometry": {"type": "Point", "coordinates": [47.04400527748218, 20.94826417977774]}}]}